[{"OBJECT_NAME":"OBJECT H","OBJECT_ID":"2025-055H","EPOCH":"2026-03-09T23:29:50.051328","MEAN_MOTION":15.30330066,"ECCENTRICITY":0.00075967,"INCLINATION":97.636,"RA_OF_ASC_NODE":211.9572,"ARG_OF_PERICENTER":140.4354,"MEAN_ANOMALY":219.7441,"EPHEMERIS_TYPE":0,"CLASSIFICATION_TYPE":"U","NORAD_CAT_ID":63298,"ELEMENT_SET_NO":999,"REV_AT_EPOCH":5423,"BSTAR":0.0015582864,"MEAN_MOTION_DOT":0.00045901,"MEAN_MOTION_DDOT":0},{"OBJECT_NAME":"STARLINK-35594","OBJECT_ID":"2025-240M","EPOCH":"2026-03-09T08:52:35.921280","MEAN_MOTION":15.30198855,"ECCENTRICITY":0.0001623,"INCLINATION":53.1614,"RA_OF_ASC_NODE":64.0013,"ARG_OF_PERICENTER":75.4773,"MEAN_ANOMALY":284.6408,"EPHEMERIS_TYPE":0,"CLASSIFICATION_TYPE":"U","NORAD_CAT_ID":66157,"ELEMENT_SET_NO":999,"REV_AT_EPOCH":2194,"BSTAR":0.0014099038,"MEAN_MOTION_DOT":0.00041631,"MEAN_MOTION_DDOT":0}]
